STARLINK-30933          
1 58410U 23180J   26068.58393184 -.00005792  00000+0 -20111-3 0  9997
2 58410  42.9954 267.3407 0000341 347.1616  12.9227 15.27584539129327
TRANSPORTER-12 OBJECT BA
1 62657U 25009BA  26068.70118713  .00011330  00000+0  42733-3 0  9991
2 62657  97.3985 151.1390 0000403 234.6623 125.4579 15.27214003 63739
